IRIDIUM 152             
1 43479U 18047D   26066.58863747 -.00000010  00000+0 -10689-4 0  9995
2 43479  86.3981 130.8212 0002159  92.9449 267.1994 14.34217439407923
IRIDIUM 147             
1 43480U 18047E   26066.59497632  .00000161  00000+0  50405-4 0  9999
2 43480  86.3981 130.8223 0002187  99.2864 260.8579 14.34215390407922
IRIDIUM 110             
1 43481U 18047F   26066.60132333 -.00000014  00000+0 -11984-4 0  9994
2 43481  86.3986 130.9082 0002375  88.1498 271.9970 14.34217349407914
IRIDIUM 162             
1 43482U 18047G   26066.59300506  .00000429  00000+0  12154-3 0  9999
2 43482  86.4503 130.8515 0002103  92.5626 267.5815 14.43285205410472
IRIDIUM 160             
1 43569U 18061A   26066.61692600  .00000009  00000+0 -37187-5 0  9993
2 43569  86.3916  99.2832 0002260  91.7326 268.4128 14.34217752398819
IRIDIUM 166             
1 43570U 18061B   26066.64229603  .00000017  00000+0 -88181-6 0  9997
2 43570  86.3916  99.2246 0002136  97.2847 262.8592 14.34217791398840
IRIDIUM 158             
1 43571U 18061C   26066.61058268  .00000001  00000+0 -66176-5 0  9994
2 43571  86.3918  99.2483 0002109  90.2394 269.9043 14.34217617398808
IRIDIUM 165             
1 43572U 18061D   26066.49641553  .00000077  00000+0  20479-4 0  9993
2 43572  86.3917  99.3398 0002233  96.5593 263.5857 14.34218474398818
IRIDIUM 155             
1 43573U 18061E   26066.59789821  .00000009  00000+0 -37550-5 0  9991
2 43573  86.3916  99.1717 0001964  93.9672 266.1749 14.34217635398794
IRIDIUM 154             
1 43574U 18061F   26066.57887444  .00000209  00000+0  67734-4 0  9997
2 43574  86.3917  99.3084 0002192  97.8596 262.2849 14.34219197398846
IRIDIUM 163             
1 43575U 18061G   26066.49007297  .00000143  00000+0  43909-4 0  9994
2 43575  86.3917  99.2643 0002204  91.4002 268.7447 14.34218895398808
IRIDIUM 156             
1 43576U 18061H   26066.60424020  .00000011  00000+0 -31018-5 0  9999
2 43576  86.3916  99.2235 0002032  94.4308 265.7120 14.34217896398812
IRIDIUM 164             
1 43577U 18061J   26066.58521362  .00000098  00000+0  28081-4 0  9993
2 43577  86.3917  99.2707 0002352  99.0098 261.1364 14.34217965398851
IRIDIUM 159             
1 43578U 18061K   26066.62326929  .00000010  00000+0 -35928-5 0  9995
2 43578  86.3917  99.1929 0002274  90.8484 269.2972 14.34217640398829
IRIDIUM 180             
1 43922U 19002A   26066.62276610  .00000247  00000+0  81206-4 0  9995
2 43922  86.3970  36.0288 0002300  85.2879 274.8580 14.34217940374436
IRIDIUM 176             
1 43923U 19002B   26066.41133515  .00001484  00000+0  23146-3 0  9991
2 43923  86.6092  36.0748 0002439  89.2871 270.8626 14.72254413384273
IRIDIUM 168             
1 43924U 19002C   26066.40711630  .00000072  00000+0  18526-4 0  9990
2 43924  86.3964  36.1930 0002219  87.3876 272.7573 14.34214238374385
