[{"OBJECT_NAME":"IRIDIUM 152","OBJECT_ID":"2018-047D","EPOCH":"2026-03-07T14:07:38.277408","MEAN_MOTION":14.34217439,"ECCENTRICITY":0.00021595,"INCLINATION":86.3981,"RA_OF_ASC_NODE":130.8212,"ARG_OF_PERICENTER":92.9449,"MEAN_ANOMALY":267.1994,"EPHEMERIS_TYPE":0,"CLASSIFICATION_TYPE":"U","NORAD_CAT_ID":43479,"ELEMENT_SET_NO":999,"REV_AT_EPOCH":40792,"BSTAR":-1.0688863e-5,"MEAN_MOTION_DOT":-1.0e-7,"MEAN_MOTION_DDOT":0},{"OBJECT_NAME":"IRIDIUM 147","OBJECT_ID":"2018-047E","EPOCH":"2026-03-07T14:16:45.954048","MEAN_MOTION":14.3421539,"ECCENTRICITY":0.00021876,"INCLINATION":86.3981,"RA_OF_ASC_NODE":130.8223,"ARG_OF_PERICENTER":99.2864,"MEAN_ANOMALY":260.8579,"EPHEMERIS_TYPE":0,"CLASSIFICATION_TYPE":"U","NORAD_CAT_ID":43480,"ELEMENT_SET_NO":999,"REV_AT_EPOCH":40792,"BSTAR":5.0405323e-5,"MEAN_MOTION_DOT":1.61e-6,"MEAN_MOTION_DDOT":0},{"OBJECT_NAME":"IRIDIUM 110","OBJECT_ID":"2018-047F","EPOCH":"2026-03-07T14:25:54.335712","MEAN_MOTION":14.34217349,"ECCENTRICITY":0.00023755,"INCLINATION":86.3986,"RA_OF_ASC_NODE":130.9082,"ARG_OF_PERICENTER":88.1498,"MEAN_ANOMALY":271.997,"EPHEMERIS_TYPE":0,"CLASSIFICATION_TYPE":"U","NORAD_CAT_ID":43481,"ELEMENT_SET_NO":999,"REV_AT_EPOCH":40791,"BSTAR":-1.1984485e-5,"MEAN_MOTION_DOT":-1.4e-7,"MEAN_MOTION_DDOT":0},{"OBJECT_NAME":"IRIDIUM 162","OBJECT_ID":"2018-047G","EPOCH":"2026-03-07T14:13:55.637184","MEAN_MOTION":14.43285205,"ECCENTRICITY":0.00021034,"INCLINATION":86.4503,"RA_OF_ASC_NODE":130.8515,"ARG_OF_PERICENTER":92.5626,"MEAN_ANOMALY":267.5815,"EPHEMERIS_TYPE":0,"CLASSIFICATION_TYPE":"U","NORAD_CAT_ID":43482,"ELEMENT_SET_NO":999,"REV_AT_EPOCH":41047,"BSTAR":0.00012153626,"MEAN_MOTION_DOT":4.29e-6,"MEAN_MOTION_DDOT":0},{"OBJECT_NAME":"IRIDIUM 160","OBJECT_ID":"2018-061A","EPOCH":"2026-03-07T14:48:22.406400","MEAN_MOTION":14.34217752,"ECCENTRICITY":0.00022604,"INCLINATION":86.3916,"RA_OF_ASC_NODE":99.2832,"ARG_OF_PERICENTER":91.7326,"MEAN_ANOMALY":268.4128,"EPHEMERIS_TYPE":0,"CLASSIFICATION_TYPE":"U","NORAD_CAT_ID":43569,"ELEMENT_SET_NO":999,"REV_AT_EPOCH":39881,"BSTAR":-3.718726e-6,"MEAN_MOTION_DOT":9.0e-8,"MEAN_MOTION_DDOT":0},{"OBJECT_NAME":"IRIDIUM 166","OBJECT_ID":"2018-061B","EPOCH":"2026-03-07T15:24:54.376992","MEAN_MOTION":14.34217791,"ECCENTRICITY":0.00021364,"INCLINATION":86.3916,"RA_OF_ASC_NODE":99.2246,"ARG_OF_PERICENTER":97.2847,"MEAN_ANOMALY":262.8592,"EPHEMERIS_TYPE":0,"CLASSIFICATION_TYPE":"U","NORAD_CAT_ID":43570,"ELEMENT_SET_NO":999,"REV_AT_EPOCH":39884,"BSTAR":-8.81814e-7,"MEAN_MOTION_DOT":1.7e-7,"MEAN_MOTION_DDOT":0},{"OBJECT_NAME":"IRIDIUM 158","OBJECT_ID":"2018-061C","EPOCH":"2026-03-07T14:39:14.343552","MEAN_MOTION":14.34217617,"ECCENTRICITY":0.00021096,"INCLINATION":86.3918,"RA_OF_ASC_NODE":99.2483,"ARG_OF_PERICENTER":90.2394,"MEAN_ANOMALY":269.9043,"EPHEMERIS_TYPE":0,"CLASSIFICATION_TYPE":"U","NORAD_CAT_ID":43571,"ELEMENT_SET_NO":999,"REV_AT_EPOCH":39880,"BSTAR":-6.617598e-6,"MEAN_MOTION_DOT":1.0e-8,"MEAN_MOTION_DDOT":0},{"OBJECT_NAME":"IRIDIUM 165","OBJECT_ID":"2018-061D","EPOCH":"2026-03-07T11:54:50.301792","MEAN_MOTION":14.34218474,"ECCENTRICITY":0.00022339,"INCLINATION":86.3917,"RA_OF_ASC_NODE":99.3398,"ARG_OF_PERICENTER":96.5593,"MEAN_ANOMALY":263.5857,"EPHEMERIS_TYPE":0,"CLASSIFICATION_TYPE":"U","NORAD_CAT_ID":43572,"ELEMENT_SET_NO":999,"REV_AT_EPOCH":39881,"BSTAR":2.0478619e-5,"MEAN_MOTION_DOT":7.7e-7,"MEAN_MOTION_DDOT":0},{"OBJECT_NAME":"IRIDIUM 155","OBJECT_ID":"2018-061E","EPOCH":"2026-03-07T14:20:58.405344","MEAN_MOTION":14.34217635,"ECCENTRICITY":0.00019647,"INCLINATION":86.3916,"RA_OF_ASC_NODE":99.1717,"ARG_OF_PERICENTER":93.9672,"MEAN_ANOMALY":266.1749,"EPHEMERIS_TYPE":0,"CLASSIFICATION_TYPE":"U","NORAD_CAT_ID":43573,"ELEMENT_SET_NO":999,"REV_AT_EPOCH":39879,"BSTAR":-3.754982e-6,"MEAN_MOTION_DOT":9.0e-8,"MEAN_MOTION_DDOT":0},{"OBJECT_NAME":"IRIDIUM 154","OBJECT_ID":"2018-061F","EPOCH":"2026-03-07T13:53:34.751616","MEAN_MOTION":14.34219197,"ECCENTRICITY":0.00021926,"INCLINATION":86.3917,"RA_OF_ASC_NODE":99.3084,"ARG_OF_PERICENTER":97.8596,"MEAN_ANOMALY":262.2849,"EPHEMERIS_TYPE":0,"CLASSIFICATION_TYPE":"U","NORAD_CAT_ID":43574,"ELEMENT_SET_NO":999,"REV_AT_EPOCH":39884,"BSTAR":6.7734254e-5,"MEAN_MOTION_DOT":2.09e-6,"MEAN_MOTION_DDOT":0},{"OBJECT_NAME":"IRIDIUM 163","OBJECT_ID":"2018-061G","EPOCH":"2026-03-07T11:45:42.304608","MEAN_MOTION":14.34218895,"ECCENTRICITY":0.0002204,"INCLINATION":86.3917,"RA_OF_ASC_NODE":99.2643,"ARG_OF_PERICENTER":91.4002,"MEAN_ANOMALY":268.7447,"EPHEMERIS_TYPE":0,"CLASSIFICATION_TYPE":"U","NORAD_CAT_ID":43575,"ELEMENT_SET_NO":999,"REV_AT_EPOCH":39880,"BSTAR":4.3908962e-5,"MEAN_MOTION_DOT":1.43e-6,"MEAN_MOTION_DDOT":0},{"OBJECT_NAME":"IRIDIUM 156","OBJECT_ID":"2018-061H","EPOCH":"2026-03-07T14:30:06.353280","MEAN_MOTION":14.34217896,"ECCENTRICITY":0.0002032,"INCLINATION":86.3916,"RA_OF_ASC_NODE":99.2235,"ARG_OF_PERICENTER":94.4308,"MEAN_ANOMALY":265.712,"EPHEMERIS_TYPE":0,"CLASSIFICATION_TYPE":"U","NORAD_CAT_ID":43576,"ELEMENT_SET_NO":999,"REV_AT_EPOCH":39881,"BSTAR":-3.10182e-6,"MEAN_MOTION_DOT":1.1e-7,"MEAN_MOTION_DDOT":0},{"OBJECT_NAME":"IRIDIUM 164","OBJECT_ID":"2018-061J","EPOCH":"2026-03-07T14:02:42.456768","MEAN_MOTION":14.34217965,"ECCENTRICITY":0.00023526,"INCLINATION":86.3917,"RA_OF_ASC_NODE":99.2707,"ARG_OF_PERICENTER":99.0098,"MEAN_ANOMALY":261.1364,"EPHEMERIS_TYPE":0,"CLASSIFICATION_TYPE":"U","NORAD_CAT_ID":43577,"ELEMENT_SET_NO":999,"REV_AT_EPOCH":39885,"BSTAR":2.8080531e-5,"MEAN_MOTION_DOT":9.8e-7,"MEAN_MOTION_DDOT":0},{"OBJECT_NAME":"IRIDIUM 159","OBJECT_ID":"2018-061K","EPOCH":"2026-03-07T14:57:30.466656","MEAN_MOTION":14.3421764,"ECCENTRICITY":0.00022741,"INCLINATION":86.3917,"RA_OF_ASC_NODE":99.1929,"ARG_OF_PERICENTER":90.8484,"MEAN_ANOMALY":269.2972,"EPHEMERIS_TYPE":0,"CLASSIFICATION_TYPE":"U","NORAD_CAT_ID":43578,"ELEMENT_SET_NO":999,"REV_AT_EPOCH":39882,"BSTAR":-3.592753e-6,"MEAN_MOTION_DOT":1.0e-7,"MEAN_MOTION_DDOT":0},{"OBJECT_NAME":"IRIDIUM 180","OBJECT_ID":"2019-002A","EPOCH":"2026-03-07T14:56:46.991040","MEAN_MOTION":14.3421794,"ECCENTRICITY":0.00023006,"INCLINATION":86.397,"RA_OF_ASC_NODE":36.0288,"ARG_OF_PERICENTER":85.2879,"MEAN_ANOMALY":274.858,"EPHEMERIS_TYPE":0,"CLASSIFICATION_TYPE":"U","NORAD_CAT_ID":43922,"ELEMENT_SET_NO":999,"REV_AT_EPOCH":37443,"BSTAR":8.1206235e-5,"MEAN_MOTION_DOT":2.47e-6,"MEAN_MOTION_DDOT":0},{"OBJECT_NAME":"IRIDIUM 176","OBJECT_ID":"2019-002B","EPOCH":"2026-03-07T09:52:19.356960","MEAN_MOTION":14.72254413,"ECCENTRICITY":0.00024398,"INCLINATION":86.6092,"RA_OF_ASC_NODE":36.0748,"ARG_OF_PERICENTER":89.2871,"MEAN_ANOMALY":270.8626,"EPHEMERIS_TYPE":0,"CLASSIFICATION_TYPE":"U","NORAD_CAT_ID":43923,"ELEMENT_SET_NO":999,"REV_AT_EPOCH":38427,"BSTAR":0.00023145597,"MEAN_MOTION_DOT":1.484e-5,"MEAN_MOTION_DDOT":0},{"OBJECT_NAME":"IRIDIUM 168","OBJECT_ID":"2019-002C","EPOCH":"2026-03-07T09:46:14.848320","MEAN_MOTION":14.34214238,"ECCENTRICITY":0.00022194,"INCLINATION":86.3964,"RA_OF_ASC_NODE":36.193,"ARG_OF_PERICENTER":87.3876,"MEAN_ANOMALY":272.7573,"EPHEMERIS_TYPE":0,"CLASSIFICATION_TYPE":"U","NORAD_CAT_ID":43924,"ELEMENT_SET_NO":999,"REV_AT_EPOCH":37438,"BSTAR":1.8526208e-5,"MEAN_MOTION_DOT":7.2e-7,"MEAN_MOTION_DDOT":0}]
